$$SOE
2460714.500000000, A.D. 2025-Feb-08 00:00:00.0000, 4.472218293374006E+08, 6.449815615966151E+07, -3.296820334324776E+07,
2460721.500000000, A.D. 2025-Feb-15 00:00:00.0000, 4.455591263615463E+08, 7.492508701255181E+07, -3.129706656301728E+07,
2460728.500000000, A.D. 2025-Feb-22 00:00:00.0000, 4.436635721020169E+08, 8.531284459379923E+07, -2.960957306297935E+07,
2460735.500000000, A.D. 2025-Mar-01 00:00:00.0000, 4.415359477681597E+08, 9.565596157070598E+07, -2.790659087961935E+07,
2460742.500000000, A.D. 2025-Mar-08 00:00:00.0000, 4.391771827682935E+08, 1.059489892070225E+08, -2.618899942082746E+07,
2460749.500000000, A.D. 2025-Mar-15 00:00:00.0000, 4.365883543400351E+08, 1.161865038309620E+08, -2.445768860498204E+07,
2460756.500000000, A.D. 2025-Mar-22 00:00:00.0000, 4.337706847904510E+08, 1.263631118832248E+08, -2.271355789549856E+07,
2460763.500000000, A.D. 2025-Mar-29 00:00:00.0000, 4.307255399251375E+08, 1.364734526933050E+08, -2.095751562949004E+07,
2460770.500000000, A.D. 2025-Apr-05 00:00:00.0000, 4.274544289902790E+08, 1.465122021129464E+08, -1.919047841544018E+07,
2460777.500000000, A.D. 2025-Apr-12 00:00:00.0000, 4.239590042018022E+08, 1.564740771027841E+08, -1.741337041629068E+07,
2460784.500000000, A.D. 2025-Apr-19 00:00:00.0000, 4.202410596760800E+08, 1.663538403829267E+08, -1.562712257446010E+07,
2460791.500000000, A.D. 2025-Apr-26 00:00:00.0000, 4.163025300360188E+08, 1.761463049364330E+08, -1.383267182199658E+07,
2460798.500000000, A.D. 2025-May-03 00:00:00.0000, 4.121454888087201E+08, 1.858463383769365E+08, -1.203096028639904E+07,
2460805.500000000, A.D. 2025-May-10 00:00:00.0000, 4.077721466462353E+08, 1.954488671813481E+08, -1.022293449566588E+07,
2460812.500000000, A.D. 2025-May-17 00:00:00.0000, 4.031848494096445E+08, 2.049488807391339E+08, -8.409544590901867E+06,
2460819.500000000, A.D. 2025-May-24 00:00:00.0000, 3.983860762946537E+08, 2.143414351564263E+08, -6.591743568474248E+06,
2460826.500000000, A.D. 2025-May-31 00:00:00.0000, 3.933784384212880E+08, 2.236216571182231E+08, -4.770486566246286E+06,
2460833.500000000, A.D. 2025-Jun-07 00:00:00.0000, 3.881646774901958E+08, 2.327847490050890E+08, -2.946730060256451E+06,
2460840.500000000, A.D. 2025-Jun-14 00:00:00.0000, 3.827476621439513E+08, 2.418259945915574E+08, -1.121430810783088E+06,
2460847.500000000, A.D. 2025-Jun-21 00:00:00.0000, 3.771303832576138E+08, 2.507407620508554E+08, 7.044550619485825E+05,
2460854.500000000, A.D. 2025-Jun-28 00:00:00.0000, 3.713159512945715E+08, 2.595245060238247E+08, 2.529972728118658E+06,
2460861.500000000, A.D. 2025-Jul-05 00:00:00.0000, 3.653075942159914E+08, 2.681727709016786E+08, 4.354169338627249E+06,
2460868.500000000, A.D. 2025-Jul-12 00:00:00.0000, 3.591086547587855E+08, 2.766811945122536E+08, 6.176094797533154E+06,
2460875.500000000, A.D. 2025-Jul-19 00:00:00.0000, 3.527225872789073E+08, 2.850455116301258E+08, 7.994802551004589E+06,
2460882.500000000, A.D. 2025-Jul-26 00:00:00.0000, 3.461529543775964E+08, 2.932615572493122E+08, 9.809350367695674E+06,
2460889.500000000, A.D. 2025-Aug-02 00:00:00.0000, 3.394034233835739E+08, 3.013252696352501E+08, 1.161880110511811E+07,
2460896.500000000, A.D. 2025-Aug-09 00:00:00.0000, 3.324777627216839E+08, 3.092326931363511E+08, 1.342222345744863E+07,
2460903.500000000, A.D. 2025-Aug-16 00:00:00.0000, 3.253798382512161E+08, 3.169799806873704E+08, 1.521869267132825E+07,
2460910.500000000, A.D. 2025-Aug-23 00:00:00.0000, 3.181136098726247E+08, 3.245633960180269E+08, 1.700729120302877E+07,
2460917.500000000, A.D. 2025-Aug-30 00:00:00.0000, 3.106831287385830E+08, 3.319793162791534E+08, 1.878710934413897E+07,
2460924.500000000, A.D. 2025-Sep-06 00:00:00.0000, 3.030925336580969E+08, 3.392242360846459E+08, 2.055724602664022E+07,
2460931.500000000, A.D. 2025-Sep-13 00:00:00.0000, 2.953460450294447E+08, 3.462947704866495E+08, 2.231680975725497E+07,
2460938.500000000, A.D. 2025-Sep-20 00:00:00.0000, 2.874479595860519E+08, 3.531876552423464E+08, 2.406491924632679E+07,
2460945.500000000, A.D. 2025-Sep-27 00:00:00.0000, 2.794026470251383E+08, 3.598997474830375E+08, 2.580070388778792E+07,
2460952.500000000, A.D. 2025-Oct-04 00:00:00.0000, 2.712145465102627E+08, 3.664280273226991E+08, 2.752330431849925E+07,
2460959.500000000, A.D. 2025-Oct-11 00:00:00.0000, 2.628881626813396E+08, 3.727695994626231E+08, 2.923187301355094E+07,
2460966.500000000, A.D. 2025-Oct-18 00:00:00.0000, 2.544280614633054E+08, 3.789216945182966E+08, 3.092557486848120E+07,
2460973.500000000, A.D. 2025-Oct-25 00:00:00.0000, 2.458388658204795E+08, 3.848816700806048E+08, 3.260358775590736E+07,
2460980.500000000, A.D. 2025-Nov-01 00:00:00.0000, 2.371252515034716E+08, 3.906470115283232E+08, 3.426510305361032E+07,
2460987.500000000, A.D. 2025-Nov-08 00:00:00.0000, 2.282919428304349E+08, 3.962153325622912E+08, 3.590932613773289E+07,
2460994.500000000, A.D. 2025-Nov-15 00:00:00.0000, 2.193437086575429E+08, 4.015843754048879E+08, 3.753547682215375E+07,
2461001.500000000, A.D. 2025-Nov-22 00:00:00.0000, 2.102853589483348E+08, 4.067520108876735E+08, 3.914278972454122E+07,
2461008.500000000, A.D. 2025-Nov-29 00:00:00.0000, 2.011217417960107E+08, 4.117162395648955E+08, 4.073051466525999E+07,
2461015.500000000, A.D. 2025-Dec-06 00:00:00.0000, 1.918577386270746E+08, 4.164751937176069E+08, 4.229791729596901E+07,
2461022.500000000, A.D. 2025-Dec-13 00:00:00.0000, 1.824982580230567E+08, 4.210271368808517E+08, 4.384427964224285E+07,
2461029.500000000, A.D. 2025-Dec-20 00:00:00.0000, 1.730482316593223E+08, 4.253704619243178E+08, 4.536890032367647E+07,
2461036.500000000, A.D. 2025-Dec-27 00:00:00.0000, 1.635126112944211E+08, 4.295036902828866E+08, 4.687109476167062E+07,
2461043.500000000, A.D. 2026-Jan-03 00:00:00.0000, 1.538963653560890E+08, 4.334254717255703E+08, 4.835019545841700E+07,
2461050.500000000, A.D. 2026-Jan-10 00:00:00.0000, 1.442044752386982E+08, 4.371345839891859E+08, 4.980555228184110E+07,
2461057.500000000, A.D. 2026-Jan-17 00:00:00.0000, 1.344419315499156E+08, 4.406299321908748E+08, 5.123653272811449E+07,
2461064.500000000, A.D. 2026-Jan-24 00:00:00.0000, 1.246137303894860E+08, 4.439105480477561E+08, 5.264252215688109E+07,
2461071.500000000, A.D. 2026-Jan-31 00:00:00.0000, 1.147248696881005E+08, 4.469755889018448E+08, 5.402292399687228E+07,
2461078.500000000, A.D. 2026-Feb-07 00:00:00.0000, 1.047803456718445E+08, 4.498243364984429E+08, 5.537715991203308E+07,
2461085.500000000, A.D. 2026-Feb-14 00:00:00.0000, 9.478514970871717E+07, 4.524561955084785E+08, 5.670466990420151E+07,
2461092.500000000, A.D. 2026-Feb-21 00:00:00.0000, 8.474426592795646E+07, 4.548706923782343E+08, 5.800491236459941E+07,
2461099.500000000, A.D. 2026-Feb-28 00:00:00.0000, 7.466266853113925E+07, 4.570674756662600E+08, 5.927736426851007E+07,
2461106.500000000, A.D. 2026-Mar-07 00:00:00.0000, 6.454531673964485E+07, 4.590463159209312E+08, 6.052152154275307E+07,
2461113.500000000, A.D. 2026-Mar-14 00:00:00.0000, 5.439715015435648E+07, 4.608071027701445E+08, 6.173689916131455E+07,
2461120.500000000, A.D. 2026-Mar-21 00:00:00.0000, 4.422308631219332E+07, 4.623498421294113E+08, 6.292303104373476E+07,
2461127.500000000, A.D. 2026-Mar-28 00:00:00.0000, 3.402801843341725E+07, 4.636746545631341E+08, 6.407947002544576E+07,
2461134.500000000, A.D. 2026-Apr-04 00:00:00.0000, 2.381681275803180E+07, 4.647817738378066E+08, 6.520578787716037E+07,
2461141.500000000, A.D. 2026-Apr-11 00:00:00.0000, 1.359430574679169E+07, 4.656715453117936E+08, 6.630157531950796E+07,
2461148.500000000, A.D. 2026-Apr-18 00:00:00.0000, 3.365301307780795E+06, 4.663444241592628E+08, 6.736644201838085E+07,
2461155.500000000, A.D. 2026-Apr-25 00:00:00.0000, -6.865431904330108E+06, 4.668009734465049E+08, 6.840001655841580E+07,
2461162.500000000, A.D. 2026-May-02 00:00:00.0000, -1.709316308531851E+07, 4.670418620342434E+08, 6.940194638976532E+07,
2461169.500000000, A.D. 2026-May-09 00:00:00.0000, -2.731320165084084E+07, 4.670678622435452E+08, 7.037189773193988E+07,
2461176.500000000, A.D. 2026-May-16 00:00:00.0000, -3.752089900156408E+07, 4.668798474288629E+08, 7.130955541241628E+07,
2461183.500000000, A.D. 2026-May-23 00:00:00.0000, -4.771164963312167E+07, 4.664787904874405E+08, 7.221462272024724E+07,
2461190.500000000, A.D. 2026-May-30 00:00:00.0000, -5.788089366860986E+07, 4.658657636317012E+08, 7.308682149272466E+07,
2461197.500000000, A.D. 2026-Jun-06 00:00:00.0000, -6.802412112961470E+07, 4.650419361544946E+08, 7.392589219709498E+07,
2461204.500000000, A.D. 2026-Jun-13 00:00:00.0000, -7.813687428140697E+07, 4.640085703891187E+08, 7.473159368783030E+07,
2461211.500000000, A.D. 2026-Jun-20 00:00:00.0000, -8.821474855463697E+07, 4.627670187963415E+08, 7.550370292545626E+07,
2461218.500000000, A.D. 2026-Jun-27 00:00:00.0000, -9.825339374177596E+07, 4.613187218428449E+08, 7.624201478528225E+07,
2461225.500000000, A.D. 2026-Jul-04 00:00:00.0000, -1.082485154692787E+08, 4.596652058988903E+08, 7.694634189282668E+07,
2461232.500000000, A.D. 2026-Jul-11 00:00:00.0000, -1.181958766931310E+08, 4.578080810262682E+08, 7.761651445212570E+07,
2461239.500000000, A.D. 2026-Jul-18 00:00:00.0000, -1.280912991268003E+08, 4.557490386855032E+08, 7.825238006087446E+07,
2461246.500000000, A.D. 2026-Jul-25 00:00:00.0000, -1.379306645789247E+08, 4.534898493682658E+08, 7.885380351078105E+07,
2461253.500000000, A.D. 2026-Aug-01 00:00:00.0000, -1.477099161544738E+08, 4.510323601099535E+08, 7.942066656521332E+07,
2461260.500000000, A.D. 2026-Aug-08 00:00:00.0000, -1.574250591064661E+08, 4.483784918494537E+08, 7.995286769195369E+07,
2461267.500000000, A.D. 2026-Aug-15 00:00:00.0000, -1.670721609255061E+08, 4.455302370893393E+08, 8.045032175033709E+07,
2461274.500000000, A.D. 2026-Aug-22 00:00:00.0000, -1.766473514308479E+08, 4.424896590813358E+08, 8.091295980311817E+07,
2461281.500000000, A.D. 2026-Aug-29 00:00:00.0000, -1.861468251536662E+08, 4.392588911680904E+08, 8.134072915150380E+07,
$$EOE